HYLAS 1                 
1 37237U 10065A   22229.28398803 -.00000244  00000+0  00000+0 0  9991
2 37237   2.0666  89.6186 0001809  51.7282 207.4847  1.00269492 42949
INTELSAT 17 (IS-17)     
1 37238U 10065B   22230.43886215 -.00000009  00000+0  00000+0 0  9999
2 37238   0.0345 224.0420 0002491 286.5160  40.2050  1.00273392 42896
BEIDOU 7                
1 37256U 10068A   22230.59724745 -.00000190  00000+0  00000+0 0  9999
2 37256  50.1034 288.9052 0023792 200.1989 160.1397  1.00287845 42776
EUTELSAT KA-SAT 9A      
1 37258U 10069A   22230.91741949  .00000055  00000+0  00000+0 0  9992
2 37258   0.0722 276.4820 0005173 235.1553 154.8492  1.00271526 29971
HISPASAT 30W-5          
1 37264U 10070A   22230.85743808 -.00000223  00000+0  00000+0 0  9998
2 37264   0.0242 123.1037 0005732  24.3794  98.3800  1.00270956 39162
KOREASAT 6              
1 37265U 10070B   22230.87936310 -.00000369  00000+0  00000+0 0  9994
2 37265   0.0139  73.1592 0001426  92.9363 233.6711  1.00269728 42745
BEIDOU 8                
1 37384U 11013A   22230.50876838 -.00000171  00000+0  00000+0 0  9993
2 37384  60.3823  53.6429 0023331 177.1576  26.1522  1.00290673 41645
INTELSAT NEW DAWN       
1 37392U 11016A   22230.91647154  .00000149  00000+0  00000+0 0  9991
2 37392   0.0249 213.7385 0000917 285.3032 190.9207  1.00274317 39263
YAHSAT 1A               
1 37393U 11016B   22230.84632966  .00000094  00000+0  00000+0 0  9998
2 37393   0.0200 227.1894 0001930 275.9596 181.2015  1.00272545 28383
SBIRS GEO-1 (USA 230)   
1 37481U 11019A   22230.88313111 -.00000015  00000+0  00000+0 0  9995
2 37481   1.9683  27.1465 0001978 121.9177 202.2739  1.00272070 41379
TELSTAR 14R             
1 37602U 11021A   22230.84361095 -.00000262  00000+0  00000+0 0  9997
2 37602   0.0537 290.1809 0024978 223.8820  53.5686  0.99910331 41765
GSAT-8                  
1 37605U 11022A   22230.84632966  .00000078  00000+0  00000+0 0  9993
2 37605   0.0125 119.3939 0003859 131.1777  76.3480  1.00273751 39194
ST-2                    
1 37606U 11022B   22230.86071205 -.00000218  00000+0  00000+0 0  9996
2 37606   0.0122 123.1018 0001749  82.4820 159.4672  1.00272505 41258
CHINASAT 10 (ZX 10)     
1 37677U 11026A   22229.24267352 -.00000363  00000+0  00000+0 0  9999
2 37677   0.0606 247.1335 0004144 272.0248   4.2977  1.00273764 40954
TIANLIAN 1-02           
1 37737U 11032A   22230.81771243 -.00000058  00000+0  00000+0 0  9998
2 37737   2.4555  74.5925 0082861   2.2528 351.6801  1.00271166 40693
GSAT-12                 
1 37746U 11034A   22230.86575984  .00000117  00000+0  00000+0 0  9994
2 37746   1.5333  91.8571 0010379  13.1664 221.7736  1.00273611 29477
SES-3                   
1 37748U 11035A   22230.56368840 -.00000109  00000+0  00000+0 0  9997
2 37748   0.0626 289.9950 0002647 223.2599 273.5558  1.00272482 40564
