[{"OBJECT_NAME":"HYLAS 1","OBJECT_ID":"2010-065A","EPOCH":"2022-08-17T06:48:56.565792","MEAN_MOTION":1.00269492,"ECCENTRICITY":0.0001809,"INCLINATION":2.0666,"RA_OF_ASC_NODE":89.6186,"ARG_OF_PERICENTER":51.7282,"MEAN_ANOMALY":207.4847,"EPHEMERIS_TYPE":0,"CLASSIFICATION_TYPE":"U","NORAD_CAT_ID":37237,"ELEMENT_SET_NO":999,"REV_AT_EPOCH":4294,"BSTAR":0,"MEAN_MOTION_DOT":-2.44e-6,"MEAN_MOTION_DDOT":0},{"OBJECT_NAME":"INTELSAT 17 (IS-17)","OBJECT_ID":"2010-065B","EPOCH":"2022-08-18T10:31:57.689760","MEAN_MOTION":1.00273392,"ECCENTRICITY":0.0002491,"INCLINATION":0.0345,"RA_OF_ASC_NODE":224.042,"ARG_OF_PERICENTER":286.516,"MEAN_ANOMALY":40.205,"EPHEMERIS_TYPE":0,"CLASSIFICATION_TYPE":"U","NORAD_CAT_ID":37238,"ELEMENT_SET_NO":999,"REV_AT_EPOCH":4289,"BSTAR":0,"MEAN_MOTION_DOT":-9.0e-8,"MEAN_MOTION_DDOT":0},{"OBJECT_NAME":"BEIDOU 7","OBJECT_ID":"2010-068A","EPOCH":"2022-08-18T14:20:02.179680","MEAN_MOTION":1.00287845,"ECCENTRICITY":0.0023792,"INCLINATION":50.1034,"RA_OF_ASC_NODE":288.9052,"ARG_OF_PERICENTER":200.1989,"MEAN_ANOMALY":160.1397,"EPHEMERIS_TYPE":0,"CLASSIFICATION_TYPE":"U","NORAD_CAT_ID":37256,"ELEMENT_SET_NO":999,"REV_AT_EPOCH":4277,"BSTAR":0,"MEAN_MOTION_DOT":-1.9e-6,"MEAN_MOTION_DDOT":0},{"OBJECT_NAME":"EUTELSAT KA-SAT 9A","OBJECT_ID":"2010-069A","EPOCH":"2022-08-18T22:01:05.043936","MEAN_MOTION":1.00271526,"ECCENTRICITY":0.0005173,"INCLINATION":0.0722,"RA_OF_ASC_NODE":276.482,"ARG_OF_PERICENTER":235.1553,"MEAN_ANOMALY":154.8492,"EPHEMERIS_TYPE":0,"CLASSIFICATION_TYPE":"U","NORAD_CAT_ID":37258,"ELEMENT_SET_NO":999,"REV_AT_EPOCH":2997,"BSTAR":0,"MEAN_MOTION_DOT":5.5e-7,"MEAN_MOTION_DDOT":0},{"OBJECT_NAME":"HISPASAT 30W-5","OBJECT_ID":"2010-070A","EPOCH":"2022-08-18T20:34:42.650112","MEAN_MOTION":1.00270956,"ECCENTRICITY":0.0005732,"INCLINATION":0.0242,"RA_OF_ASC_NODE":123.1037,"ARG_OF_PERICENTER":24.3794,"MEAN_ANOMALY":98.38,"EPHEMERIS_TYPE":0,"CLASSIFICATION_TYPE":"U","NORAD_CAT_ID":37264,"ELEMENT_SET_NO":999,"REV_AT_EPOCH":3916,"BSTAR":0,"MEAN_MOTION_DOT":-2.23e-6,"MEAN_MOTION_DDOT":0},{"OBJECT_NAME":"KOREASAT 6","OBJECT_ID":"2010-070B","EPOCH":"2022-08-18T21:06:16.971840","MEAN_MOTION":1.00269728,"ECCENTRICITY":0.0001426,"INCLINATION":0.0139,"RA_OF_ASC_NODE":73.1592,"ARG_OF_PERICENTER":92.9363,"MEAN_ANOMALY":233.6711,"EPHEMERIS_TYPE":0,"CLASSIFICATION_TYPE":"U","NORAD_CAT_ID":37265,"ELEMENT_SET_NO":999,"REV_AT_EPOCH":4274,"BSTAR":0,"MEAN_MOTION_DOT":-3.69e-6,"MEAN_MOTION_DDOT":0},{"OBJECT_NAME":"BEIDOU 8","OBJECT_ID":"2011-013A","EPOCH":"2022-08-18T12:12:37.588032","MEAN_MOTION":1.00290673,"ECCENTRICITY":0.0023331,"INCLINATION":60.3823,"RA_OF_ASC_NODE":53.6429,"ARG_OF_PERICENTER":177.1576,"MEAN_ANOMALY":26.1522,"EPHEMERIS_TYPE":0,"CLASSIFICATION_TYPE":"U","NORAD_CAT_ID":37384,"ELEMENT_SET_NO":999,"REV_AT_EPOCH":4164,"BSTAR":0,"MEAN_MOTION_DOT":-1.71e-6,"MEAN_MOTION_DDOT":0},{"OBJECT_NAME":"INTELSAT NEW DAWN","OBJECT_ID":"2011-016A","EPOCH":"2022-08-18T21:59:43.141056","MEAN_MOTION":1.00274317,"ECCENTRICITY":9.17e-5,"INCLINATION":0.0249,"RA_OF_ASC_NODE":213.7385,"ARG_OF_PERICENTER":285.3032,"MEAN_ANOMALY":190.9207,"EPHEMERIS_TYPE":0,"CLASSIFICATION_TYPE":"U","NORAD_CAT_ID":37392,"ELEMENT_SET_NO":999,"REV_AT_EPOCH":3926,"BSTAR":0,"MEAN_MOTION_DOT":1.49e-6,"MEAN_MOTION_DDOT":0},{"OBJECT_NAME":"YAHSAT 1A","OBJECT_ID":"2011-016B","EPOCH":"2022-08-18T20:18:42.882624","MEAN_MOTION":1.00272545,"ECCENTRICITY":0.000193,"INCLINATION":0.02,"RA_OF_ASC_NODE":227.1894,"ARG_OF_PERICENTER":275.9596,"MEAN_ANOMALY":181.2015,"EPHEMERIS_TYPE":0,"CLASSIFICATION_TYPE":"U","NORAD_CAT_ID":37393,"ELEMENT_SET_NO":999,"REV_AT_EPOCH":2838,"BSTAR":0,"MEAN_MOTION_DOT":9.4e-7,"MEAN_MOTION_DDOT":0},{"OBJECT_NAME":"SBIRS GEO-1 (USA 230)","OBJECT_ID":"2011-019A","EPOCH":"2022-08-18T21:11:42.527904","MEAN_MOTION":1.0027207,"ECCENTRICITY":0.0001978,"INCLINATION":1.9683,"RA_OF_ASC_NODE":27.1465,"ARG_OF_PERICENTER":121.9177,"MEAN_ANOMALY":202.2739,"EPHEMERIS_TYPE":0,"CLASSIFICATION_TYPE":"U","NORAD_CAT_ID":37481,"ELEMENT_SET_NO":999,"REV_AT_EPOCH":4137,"BSTAR":0,"MEAN_MOTION_DOT":-1.5e-7,"MEAN_MOTION_DDOT":0},{"OBJECT_NAME":"TELSTAR 14R","OBJECT_ID":"2011-021A","EPOCH":"2022-08-18T20:14:47.986080","MEAN_MOTION":0.99910331,"ECCENTRICITY":0.0024978,"INCLINATION":0.0537,"RA_OF_ASC_NODE":290.1809,"ARG_OF_PERICENTER":223.882,"MEAN_ANOMALY":53.5686,"EPHEMERIS_TYPE":0,"CLASSIFICATION_TYPE":"U","NORAD_CAT_ID":37602,"ELEMENT_SET_NO":999,"REV_AT_EPOCH":4176,"BSTAR":0,"MEAN_MOTION_DOT":-2.62e-6,"MEAN_MOTION_DDOT":0},{"OBJECT_NAME":"GSAT-8","OBJECT_ID":"2011-022A","EPOCH":"2022-08-18T20:18:42.882624","MEAN_MOTION":1.00273751,"ECCENTRICITY":0.0003859,"INCLINATION":0.0125,"RA_OF_ASC_NODE":119.3939,"ARG_OF_PERICENTER":131.1777,"MEAN_ANOMALY":76.348,"EPHEMERIS_TYPE":0,"CLASSIFICATION_TYPE":"U","NORAD_CAT_ID":37605,"ELEMENT_SET_NO":999,"REV_AT_EPOCH":3919,"BSTAR":0,"MEAN_MOTION_DOT":7.8e-7,"MEAN_MOTION_DDOT":0},{"OBJECT_NAME":"ST-2","OBJECT_ID":"2011-022B","EPOCH":"2022-08-18T20:39:25.521120","MEAN_MOTION":1.00272505,"ECCENTRICITY":0.0001749,"INCLINATION":0.0122,"RA_OF_ASC_NODE":123.1018,"ARG_OF_PERICENTER":82.482,"MEAN_ANOMALY":159.4672,"EPHEMERIS_TYPE":0,"CLASSIFICATION_TYPE":"U","NORAD_CAT_ID":37606,"ELEMENT_SET_NO":999,"REV_AT_EPOCH":4125,"BSTAR":0,"MEAN_MOTION_DOT":-2.18e-6,"MEAN_MOTION_DDOT":0},{"OBJECT_NAME":"CHINASAT 10 (ZX 10)","OBJECT_ID":"2011-026A","EPOCH":"2022-08-17T05:49:26.992128","MEAN_MOTION":1.00273764,"ECCENTRICITY":0.0004144,"INCLINATION":0.0606,"RA_OF_ASC_NODE":247.1335,"ARG_OF_PERICENTER":272.0248,"MEAN_ANOMALY":4.2977,"EPHEMERIS_TYPE":0,"CLASSIFICATION_TYPE":"U","NORAD_CAT_ID":37677,"ELEMENT_SET_NO":999,"REV_AT_EPOCH":4095,"BSTAR":0,"MEAN_MOTION_DOT":-3.63e-6,"MEAN_MOTION_DDOT":0},{"OBJECT_NAME":"TIANLIAN 1-02","OBJECT_ID":"2011-032A","EPOCH":"2022-08-18T19:37:30.353952","MEAN_MOTION":1.00271166,"ECCENTRICITY":0.0082861,"INCLINATION":2.4555,"RA_OF_ASC_NODE":74.5925,"ARG_OF_PERICENTER":2.2528,"MEAN_ANOMALY":351.6801,"EPHEMERIS_TYPE":0,"CLASSIFICATION_TYPE":"U","NORAD_CAT_ID":37737,"ELEMENT_SET_NO":999,"REV_AT_EPOCH":4069,"BSTAR":0,"MEAN_MOTION_DOT":-5.8e-7,"MEAN_MOTION_DDOT":0},{"OBJECT_NAME":"GSAT-12","OBJECT_ID":"2011-034A","EPOCH":"2022-08-18T20:46:41.650176","MEAN_MOTION":1.00273611,"ECCENTRICITY":0.0010379,"INCLINATION":1.5333,"RA_OF_ASC_NODE":91.8571,"ARG_OF_PERICENTER":13.1664,"MEAN_ANOMALY":221.7736,"EPHEMERIS_TYPE":0,"CLASSIFICATION_TYPE":"U","NORAD_CAT_ID":37746,"ELEMENT_SET_NO":999,"REV_AT_EPOCH":2947,"BSTAR":0,"MEAN_MOTION_DOT":1.17e-6,"MEAN_MOTION_DDOT":0},{"OBJECT_NAME":"SES-3","OBJECT_ID":"2011-035A","EPOCH":"2022-08-18T13:31:42.677760","MEAN_MOTION":1.00272482,"ECCENTRICITY":0.0002647,"INCLINATION":0.0626,"RA_OF_ASC_NODE":289.995,"ARG_OF_PERICENTER":223.2599,"MEAN_ANOMALY":273.5558,"EPHEMERIS_TYPE":0,"CLASSIFICATION_TYPE":"U","NORAD_CAT_ID":37748,"ELEMENT_SET_NO":999,"REV_AT_EPOCH":4056,"BSTAR":0,"MEAN_MOTION_DOT":-1.09e-6,"MEAN_MOTION_DDOT":0}]